{
  "type": "FeatureCollection",
  "features": [
    {
      "type": "Feature",
      "properties": {
        "OBJECT_NAME": "BEIDOU-2 IGSO-7 (C16)",
        "OBJECT_ID": "2018-057A",
        "EPOCH": "2025-11-28T22:59:41.972352",
        "MEAN_MOTION": 1.00261052,
        "ECCENTRICITY": 0.00923584,
        "INCLINATION": 55.1733,
        "RA_OF_ASC_NODE": 164.7931,
        "ARG_OF_PERICENTER": 235.1257,
        "MEAN_ANOMALY": 124.7491,
        "EPHEMERIS_TYPE": 0,
        "CLASSIFICATION_TYPE": "U",
        "NORAD_CAT_ID": 43539,
        "ELEMENT_SET_NO": 999,
        "REV_AT_EPOCH": 2712,
        "BSTAR": 0,
        "MEAN_MOTION_DOT": -3.5e-07,
        "MEAN_MOTION_DDOT": 0,
        "norad_id": 43539,
        "name": "BEIDOU-2 IGSO-7 (C16)",
        "group": "beidou",
        "longitude_deg": NaN,
        "latitude_deg": NaN,
        "alt_km": NaN,
        "orbit_class": "HEO",
        "timestamp": "2025-11-30T06:54:03.079469+00:00"
      },
      "geometry": {
        "type": "Point",
        "coordinates": [
          NaN,
          NaN
        ]
      }
    },
    {
      "type": "Feature",
      "properties": {
        "OBJECT_NAME": "BEIDOU-3 M5 (C23)",
        "OBJECT_ID": "2018-062A",
        "EPOCH": "2025-11-29T21:31:06.176064",
        "MEAN_MOTION": 1.86228572,
        "ECCENTRICITY": 0.0002145,
        "INCLINATION": 54.0892,
        "RA_OF_ASC_NODE": 189.0808,
        "ARG_OF_PERICENTER": 349.5342,
        "MEAN_ANOMALY": 10.5508,
        "EPHEMERIS_TYPE": 0,
        "CLASSIFICATION_TYPE": "U",
        "NORAD_CAT_ID": 43581,
        "ELEMENT_SET_NO": 999,
        "REV_AT_EPOCH": 4992,
        "BSTAR": 0,
        "MEAN_MOTION_DOT": 1.08e-06,
        "MEAN_MOTION_DDOT": 0,
        "norad_id": 43581,
        "name": "BEIDOU-3 M5 (C23)",
        "group": "beidou",
        "longitude_deg": NaN,
        "latitude_deg": NaN,
        "alt_km": NaN,
        "orbit_class": "HEO",
        "timestamp": "2025-11-30T06:54:03.079565+00:00"
      },
      "geometry": {
        "type": "Point",
        "coordinates": [
          NaN,
          NaN
        ]
      }
    },
    {
      "type": "Feature",
      "properties": {
        "OBJECT_NAME": "BEIDOU-3 M6 (C24)",
        "OBJECT_ID": "2018-062B",
        "EPOCH": "2025-11-29T05:20:48.758784",
        "MEAN_MOTION": 1.86229634,
        "ECCENTRICITY": 0.0007653,
        "INCLINATION": 54.0888,
        "RA_OF_ASC_NODE": 189.0929,
        "ARG_OF_PERICENTER": 45.3523,
        "MEAN_ANOMALY": 314.7975,
        "EPHEMERIS_TYPE": 0,
        "CLASSIFICATION_TYPE": "U",
        "NORAD_CAT_ID": 43582,
        "ELEMENT_SET_NO": 999,
        "REV_AT_EPOCH": 4991,
        "BSTAR": 0,
        "MEAN_MOTION_DOT": 1.01e-06,
        "MEAN_MOTION_DDOT": 0,
        "norad_id": 43582,
        "name": "BEIDOU-3 M6 (C24)",
        "group": "beidou",
        "longitude_deg": NaN,
        "latitude_deg": NaN,
        "alt_km": NaN,
        "orbit_class": "HEO",
        "timestamp": "2025-11-30T06:54:03.079572+00:00"
      },
      "geometry": {
        "type": "Point",
        "coordinates": [
          NaN,
          NaN
        ]
      }
    },
    {
      "type": "Feature",
      "properties": {
        "OBJECT_NAME": "BEIDOU-3 M12 (C26)",
        "OBJECT_ID": "2018-067A",
        "EPOCH": "2025-11-29T03:51:04.626144",
        "MEAN_MOTION": 1.86227642,
        "ECCENTRICITY": 0.0009124,
        "INCLINATION": 54.1831,
        "RA_OF_ASC_NODE": 187.8243,
        "ARG_OF_PERICENTER": 40.2231,
        "MEAN_ANOMALY": 319.9311,
        "EPHEMERIS_TYPE": 0,
        "CLASSIFICATION_TYPE": "U",
        "NORAD_CAT_ID": 43602,
        "ELEMENT_SET_NO": 999,
        "REV_AT_EPOCH": 4939,
        "BSTAR": 0,
        "MEAN_MOTION_DOT": 1.03e-06,
        "MEAN_MOTION_DDOT": 0,
        "norad_id": 43602,
        "name": "BEIDOU-3 M12 (C26)",
        "group": "beidou",
        "longitude_deg": NaN,
        "latitude_deg": NaN,
        "alt_km": NaN,
        "orbit_class": "HEO",
        "timestamp": "2025-11-30T06:54:03.079591+00:00"
      },
      "geometry": {
        "type": "Point",
        "coordinates": [
          NaN,
          NaN
        ]
      }
    },
    {
      "type": "Feature",
      "properties": {
        "OBJECT_NAME": "BEIDOU-3 M11 (C25)",
        "OBJECT_ID": "2018-067B",
        "EPOCH": "2025-11-29T07:04:43.134816",
        "MEAN_MOTION": 1.8622715,
        "ECCENTRICITY": 0.0005556,
        "INCLINATION": 54.1805,
        "RA_OF_ASC_NODE": 187.7838,
        "ARG_OF_PERICENTER": 35.6073,
        "MEAN_ANOMALY": 324.5167,
        "EPHEMERIS_TYPE": 0,
        "CLASSIFICATION_TYPE": "U",
        "NORAD_CAT_ID": 43603,
        "ELEMENT_SET_NO": 999,
        "REV_AT_EPOCH": 4942,
        "BSTAR": 0,
        "MEAN_MOTION_DOT": 1.04e-06,
        "MEAN_MOTION_DDOT": 0,
        "norad_id": 43603,
        "name": "BEIDOU-3 M11 (C25)",
        "group": "beidou",
        "longitude_deg": NaN,
        "latitude_deg": NaN,
        "alt_km": NaN,
        "orbit_class": "HEO",
        "timestamp": "2025-11-30T06:54:03.079597+00:00"
      },
      "geometry": {
        "type": "Point",
        "coordinates": [
          NaN,
          NaN
        ]
      }
    },
    {
      "type": "Feature",
      "properties": {
        "OBJECT_NAME": "BEIDOU-3 M13 (C32)",
        "OBJECT_ID": "2018-072A",
        "EPOCH": "2025-11-28T17:08:58.161120",
        "MEAN_MOTION": 1.86230774,
        "ECCENTRICITY": 0.00053979,
        "INCLINATION": 56.447,
        "RA_OF_ASC_NODE": 69.285,
        "ARG_OF_PERICENTER": 298.8497,
        "MEAN_ANOMALY": 61.1071,
        "EPHEMERIS_TYPE": 0,
        "CLASSIFICATION_TYPE": "U",
        "NORAD_CAT_ID": 43622,
        "ELEMENT_SET_NO": 999,
        "REV_AT_EPOCH": 4892,
        "BSTAR": 0,
        "MEAN_MOTION_DOT": -2.2e-07,
        "MEAN_MOTION_DDOT": 0,
        "norad_id": 43622,
        "name": "BEIDOU-3 M13 (C32)",
        "group": "beidou",
        "longitude_deg": NaN,
        "latitude_deg": NaN,
        "alt_km": NaN,
        "orbit_class": "HEO",
        "timestamp": "2025-11-30T06:54:03.079634+00:00"
      },
      "geometry": {
        "type": "Point",
        "coordinates": [
          NaN,
          NaN
        ]
      }
    },
    {
      "type": "Feature",
      "properties": {
        "OBJECT_NAME": "BEIDOU-3 M14 (C33)",
        "OBJECT_ID": "2018-072B",
        "EPOCH": "2025-11-29T15:41:39.951168",
        "MEAN_MOTION": 1.86230754,
        "ECCENTRICITY": 0.0002978,
        "INCLINATION": 56.4495,
        "RA_OF_ASC_NODE": 69.2478,
        "ARG_OF_PERICENTER": 337.4525,
        "MEAN_ANOMALY": 22.5427,
        "EPHEMERIS_TYPE": 0,
        "CLASSIFICATION_TYPE": "U",
        "NORAD_CAT_ID": 43623,
        "ELEMENT_SET_NO": 999,
        "REV_AT_EPOCH": 4893,
        "BSTAR": 0,
        "MEAN_MOTION_DOT": -2.8e-07,
        "MEAN_MOTION_DDOT": 0,
        "norad_id": 43623,
        "name": "BEIDOU-3 M14 (C33)",
        "group": "beidou",
        "longitude_deg": NaN,
        "latitude_deg": NaN,
        "alt_km": NaN,
        "orbit_class": "HEO",
        "timestamp": "2025-11-30T06:54:03.079640+00:00"
      },
      "geometry": {
        "type": "Point",
        "coordinates": [
          NaN,
          NaN
        ]
      }
    },
    {
      "type": "Feature",
      "properties": {
        "OBJECT_NAME": "BEIDOU-3 M16 (C35)",
        "OBJECT_ID": "2018-078A",
        "EPOCH": "2025-11-29T06:36:00.842400",
        "MEAN_MOTION": 1.86232199,
        "ECCENTRICITY": 0.00068963,
        "INCLINATION": 54.2745,
        "RA_OF_ASC_NODE": 306.9921,
        "ARG_OF_PERICENTER": 18.0766,
        "MEAN_ANOMALY": 341.9469,
        "EPHEMERIS_TYPE": 0,
        "CLASSIFICATION_TYPE": "U",
        "NORAD_CAT_ID": 43647,
        "ELEMENT_SET_NO": 999,
        "REV_AT_EPOCH": 4843,
        "BSTAR": 0,
        "MEAN_MOTION_DOT": -4.7e-07,
        "MEAN_MOTION_DDOT": 0,
        "norad_id": 43647,
        "name": "BEIDOU-3 M16 (C35)",
        "group": "beidou",
        "longitude_deg": NaN,
        "latitude_deg": NaN,
        "alt_km": NaN,
        "orbit_class": "HEO",
        "timestamp": "2025-11-30T06:54:03.079683+00:00"
      },
      "geometry": {
        "type": "Point",
        "coordinates": [
          NaN,
          NaN
        ]
      }
    }
  ]
}