BEIDOU-2 IGSO-7 (C16)   
1 43539U 18057A   25332.95812468 -.00000035  00000+0  00000+0 0  9990
2 43539  55.1733 164.7931 0092358 235.1257 124.7491  1.00261052 27120
BEIDOU-3 M5 (C23)       
1 43581U 18062A   25333.89659926  .00000108  00000+0  00000+0 0  9995
2 43581  54.0892 189.0808 0002145 349.5342  10.5508  1.86228572 49921
BEIDOU-3 M6 (C24)       
1 43582U 18062B   25333.22278656  .00000101  00000+0  00000+0 0  9993
2 43582  54.0888 189.0929 0007653  45.3523 314.7975  1.86229634 49918
BEIDOU-3 M12 (C26)      
1 43602U 18067A   25333.16047021  .00000103  00000+0  00000+0 0  9996
2 43602  54.1831 187.8243 0009124  40.2231 319.9311  1.86227642 49390
BEIDOU-3 M11 (C25)      
1 43603U 18067B   25333.29494369  .00000104  00000+0  00000+0 0  9993
2 43603  54.1805 187.7838 0005556  35.6073 324.5167  1.86227150 49427
BEIDOU-3 M13 (C32)      
1 43622U 18072A   25332.71456205 -.00000022  00000+0  00000+0 0  9993
2 43622  56.4470  69.2850 0005397 298.8497  61.1071  1.86230774 48923
BEIDOU-3 M14 (C33)      
1 43623U 18072B   25333.65393462 -.00000028  00000+0  00000+0 0  9999
2 43623  56.4495  69.2478 0002978 337.4525  22.5427  1.86230754 48936
BEIDOU-3 M16 (C35)      
1 43647U 18078A   25333.27500975 -.00000047  00000+0  00000+0 0  9999
2 43647  54.2745 306.9921 0006896  18.0766 341.9469  1.86232199 48436
